OBJECT_NAME,OBJECT_ID,EPOCH,MEAN_MOTION,ECCENTRICITY,INCLINATION,RA_OF_ASC_NODE,ARG_OF_PERICENTER,MEAN_ANOMALY,EPHEMERIS_TYPE,CLASSIFICATION_TYPE,NORAD_CAT_ID,ELEMENT_SET_NO,REV_AT_EPOCH,BSTAR,MEAN_MOTION_DOT,MEAN_MOTION_DDOT
STARLINK-4083,2022-062C,2024-08-20T21:11:53.515392,15.08850090,.0001183,53.2173,54.1295,99.3939,260.7187,0,U,52832,999,12085,-.5052E-4,-.1092E-4,0
STARLINK-4086,2022-062D,2024-08-20T05:12:44.411616,15.08834173,.0002615,53.2170,57.1134,81.5094,278.6195,0,U,52833,999,12026,-.24761E-4,-.683E-5,0
STARLINK-4108,2022-062E,2024-08-20T11:23:40.922016,15.08837991,.0001519,53.2172,55.9582,82.7639,277.3525,0,U,52834,999,12030,.23773E-5,-.25E-5,0
STARLINK-4080,2022-062F,2024-08-20T17:39:55.046592,15.08846634,.0001337,53.2169,54.7851,81.2312,278.8831,0,U,52835,999,12034,.25067E-3,.3704E-4,0
STARLINK-4043,2022-062G,2024-08-20T11:56:54.815424,15.08838993,.0001447,53.2186,56.1726,82.0470,278.0686,0,U,52836,999,12030,.64745E-4,.743E-5,0
STARLINK-4036,2022-062H,2024-08-20T17:24:01.392768,15.08837104,.000208,53.2183,54.8282,129.2703,230.8474,0,U,52837,999,12034,.51371E-3,.7896E-4,0
STARLINK-4092,2022-062J,2024-08-20T12:43:09.764832,15.08839465,.0001516,53.2150,55.6985,85.1958,274.9207,0,U,52838,999,12031,.20327E-4,.36E-6,0
STARLINK-4048,2022-062K,2024-08-20T06:05:43.285344,15.08848066,.0001656,53.2177,56.9438,126.2008,233.9137,0,U,52839,999,12027,.6525E-3,.10114E-3,0
STARLINK-4049,2022-062L,2024-08-20T12:48:28.944576,15.08837343,.0001387,53.2156,55.8086,94.5238,265.5913,0,U,52840,999,12031,.91225E-4,.1164E-4,0
STARLINK-4065,2022-062M,2024-08-20T12:11:22.252416,15.08828859,.0001806,53.2156,55.8089,83.6714,276.4484,0,U,52841,999,12031,.12798E-2,.20133E-3,0
STARLINK-4046,2022-062N,2024-08-20T17:18:42.382368,15.08846638,.0001022,53.2180,54.7742,94.3962,265.7146,0,U,52842,999,12083,.33087E-4,.239E-5,0
STARLINK-4188,2022-062P,2024-08-20T12:00:46.333728,15.08841467,.0001297,53.2155,55.8416,90.9618,269.1523,0,U,52843,999,12031,.13004E-3,.1782E-4,0
STARLINK-4208,2022-062Q,2024-08-20T18:43:30.652032,15.08848518,.0001463,53.2160,54.5879,89.9412,270.1748,0,U,52844,999,12084,.43616E-3,.6662E-4,0
STARLINK-4168,2022-062R,2024-08-20T12:06:04.843872,15.08838959,.0001147,53.2174,55.8936,89.5324,270.5799,0,U,52845,999,12031,.75519E-4,.914E-5,0
STARLINK-4212,2022-062S,2024-08-20T12:07:26.565312,15.08839833,.0001262,53.2169,55.8313,101.5961,258.5173,0,U,52846,999,12031,.86401E-4,.1087E-4,0
STARLINK-4206,2022-062T,2024-08-20T19:47:05.919648,15.08845763,.0001434,53.2176,54.3879,94.7493,265.3663,0,U,52847,999,12085,.14195E-3,.1972E-4,0
STARLINK-4202,2022-062U,2024-08-20T12:16:40.267488,15.08841637,.0001292,53.2146,55.7932,83.7342,276.3797,0,U,52848,999,12031,.39933E-3,.6073E-4,0
STARLINK-4197,2022-062V,2024-08-20T18:02:26.320128,15.08846068,.000144,53.2173,44.7164,82.8645,277.2511,0,U,52849,999,12097,-.90397E-5,-.432E-5,0
STARLINK-4187,2022-062W,2024-08-20T12:44:36.154464,15.08833225,.0001163,53.2183,56.0654,113.1555,246.9560,0,U,52850,999,12031,-.20133E-3,-.349E-4,0
STARLINK-3809,2022-062X,2024-08-20T17:57:08.173728,15.08847874,.0001488,53.2181,44.7314,83.3283,276.7878,0,U,52851,999,12097,-.20105E-4,-.608E-5,0
STARLINK-4184,2022-062Y,2024-08-20T18:07:44.646240,15.08850079,.0001463,53.2167,44.6974,94.0563,266.0597,0,U,52852,999,12097,.76321E-3,.11883E-3,0
STARLINK-4189,2022-062Z,2024-08-20T11:21:04.315968,15.08847001,.0001869,53.2175,45.9384,84.8126,275.3079,0,U,52853,999,12044,.23074E-3,.3387E-4,0
STARLINK-4204,2022-062AA,2024-08-20T17:51:50.079168,15.08851644,.0001598,53.2189,44.7472,106.5310,253.5857,0,U,52854,999,12097,-.13621E-4,-.505E-5,0
STARLINK-4209,2022-062AB,2024-08-20T11:14:24.676224,15.08840894,.0000958,53.2187,45.9876,86.9639,273.1463,0,U,52855,999,12044,.49518E-4,.5E-5,0
STARLINK-4201,2022-062AC,2024-08-20T11:26:23.479296,15.08847275,.0001606,53.2173,45.9988,82.8977,277.2197,0,U,52856,999,12044,.19051E-3,.2746E-4,0
STARLINK-4199,2022-062AD,2024-08-20T17:25:20.526528,15.08847116,.0001353,53.2191,44.8341,98.6555,261.4590,0,U,52857,999,12097,.11414E-3,.1529E-4,0
STARLINK-4198,2022-062AE,2024-08-20T17:41:14.830080,15.08847284,.0001447,53.2178,44.8115,82.9377,277.1780,0,U,52858,999,12097,.35438E-3,.5358E-4,0
STARLINK-4196,2022-062AF,2024-08-20T17:20:02.915808,15.08834880,.0001213,53.2189,44.8488,104.8533,255.2594,0,U,52859,999,12097,.15044E-3,.2107E-4,0
STARLINK-4191,2022-062AG,2024-08-20T12:44:29.582880,15.08842334,.000136,53.2183,45.7072,89.6893,270.4254,0,U,52860,999,12045,.60104E-4,.669E-5,0
STARLINK-4112,2022-062AH,2024-08-20T20:05:42.101376,15.08848285,.0001324,53.2170,44.3398,81.6208,278.4934,0,U,52861,999,12099,.49981E-3,.7677E-4,0
