STARLINK-4083           
1 52832U 22062C   24233.88325828 -.00001092  00000+0 -50520-4 0  9999
2 52832  53.2173  54.1295 0001183  99.3939 260.7187 15.08850090120857
STARLINK-4086           
1 52833U 22062D   24233.21718069 -.00000683  00000+0 -24761-4 0  9993
2 52833  53.2170  57.1134 0002615  81.5094 278.6195 15.08834173120262
STARLINK-4108           
1 52834U 22062E   24233.47477919 -.00000250  00000+0  23773-5 0  9990
2 52834  53.2172  55.9582 0001519  82.7639 277.3525 15.08837991120307
STARLINK-4080           
1 52835U 22062F   24233.73605378  .00003704  00000+0  25067-3 0  9994
2 52835  53.2169  54.7851 0001337  81.2312 278.8831 15.08846634120344
STARLINK-4043           
1 52836U 22062G   24233.49785666  .00000743  00000+0  64745-4 0  9994
2 52836  53.2186  56.1726 0001447  82.0470 278.0686 15.08838993120302
STARLINK-4036           
1 52837U 22062H   24233.72501612  .00007896  00000+0  51371-3 0  9994
2 52837  53.2183  54.8282 0002080 129.2703 230.8474 15.08837104120347
STARLINK-4092           
1 52838U 22062J   24233.52997413  .00000036  00000+0  20327-4 0  9998
2 52838  53.2150  55.6985 0001516  85.1958 274.9207 15.08839465120318
STARLINK-4048           
1 52839U 22062K   24233.25397321  .00010114  00000+0  65250-3 0  9992
2 52839  53.2177  56.9438 0001656 126.2008 233.9137 15.08848066120272
STARLINK-4049           
1 52840U 22062L   24233.53366834  .00001164  00000+0  91225-4 0  9997
2 52840  53.2156  55.8086 0001387  94.5238 265.5913 15.08837343120315
STARLINK-4065           
1 52841U 22062M   24233.50789644  .00020133  00000+0  12798-2 0  9996
2 52841  53.2156  55.8089 0001806  83.6714 276.4484 15.08828859120319
STARLINK-4046           
1 52842U 22062N   24233.72132387  .00000239  00000+0  33087-4 0  9998
2 52842  53.2180  54.7742 0001022  94.3962 265.7146 15.08846638120833
STARLINK-4188           
1 52843U 22062P   24233.50053627  .00001782  00000+0  13004-3 0  9994
2 52843  53.2155  55.8416 0001297  90.9618 269.1523 15.08841467120315
STARLINK-4208           
1 52844U 22062Q   24233.78021588  .00006662  00000+0  43616-3 0  9990
2 52844  53.2160  54.5879 0001463  89.9412 270.1748 15.08848518120849
STARLINK-4168           
1 52845U 22062R   24233.50422273  .00000914  00000+0  75519-4 0  9999
2 52845  53.2174  55.8936 0001147  89.5324 270.5799 15.08838959120310
STARLINK-4212           
1 52846U 22062S   24233.50516858  .00001087  00000+0  86401-4 0  9997
2 52846  53.2169  55.8313 0001262 101.5961 258.5173 15.08839833120318
STARLINK-4206           
1 52847U 22062T   24233.82437407  .00001972  00000+0  14195-3 0  9998
2 52847  53.2176  54.3879 0001434  94.7493 265.3663 15.08845763120850
STARLINK-4202           
1 52848U 22062U   24233.51157717  .00006073  00000+0  39933-3 0  9992
2 52848  53.2146  55.7932 0001292  83.7342 276.3797 15.08841637120313
STARLINK-4197           
1 52849U 22062V   24233.75169352 -.00000432  00000+0 -90397-5 0  9995
2 52849  53.2173  44.7164 0001440  82.8645 277.2511 15.08846068120979
STARLINK-4187           
1 52850U 22062W   24233.53097401 -.00003490  00000+0 -20133-3 0  9994
2 52850  53.2183  56.0654 0001163 113.1555 246.9560 15.08833225120318
STARLINK-3809           
1 52851U 22062X   24233.74801127 -.00000608  00000+0 -20105-4 0  9994
2 52851  53.2181  44.7314 0001488  83.3283 276.7878 15.08847874120970
STARLINK-4184           
1 52852U 22062Y   24233.75537785  .00011883  00000+0  76321-3 0  9997
2 52852  53.2167  44.6974 0001463  94.0563 266.0597 15.08850079120970
STARLINK-4189           
1 52853U 22062Z   24233.47296662  .00003387  00000+0  23074-3 0  9990
2 52853  53.2175  45.9384 0001869  84.8126 275.3079 15.08847001120442
STARLINK-4204           
1 52854U 22062AA  24233.74432962 -.00000505  00000+0 -13621-4 0  9995
2 52854  53.2189  44.7472 0001598 106.5310 253.5857 15.08851644120977
STARLINK-4209           
1 52855U 22062AB  24233.46834116  .00000500  00000+0  49518-4 0  9999
2 52855  53.2187  45.9876 0000958  86.9639 273.1463 15.08840894120449
STARLINK-4201           
1 52856U 22062AC  24233.47666064  .00002746  00000+0  19051-3 0  9998
2 52856  53.2173  45.9988 0001606  82.8977 277.2197 15.08847275120449
STARLINK-4199           
1 52857U 22062AD  24233.72593202  .00001529  00000+0  11414-3 0  9993
2 52857  53.2191  44.8341 0001353  98.6555 261.4590 15.08847116120971
STARLINK-4198           
1 52858U 22062AE  24233.73697720  .00005358  00000+0  35438-3 0  9991
2 52858  53.2178  44.8115 0001447  82.9377 277.1780 15.08847284120979
STARLINK-4196           
1 52859U 22062AF  24233.72225597  .00002107  00000+0  15044-3 0  9990
2 52859  53.2189  44.8488 0001213 104.8533 255.2594 15.08834880120972
STARLINK-4191           
1 52860U 22062AG  24233.53089795  .00000669  00000+0  60104-4 0  9998
2 52860  53.2183  45.7072 0001360  89.6893 270.4254 15.08842334120457
STARLINK-4112           
1 52861U 22062AH  24233.83729284  .00007677  00000+0  49981-3 0  9991
2 52861  53.2170  44.3398 0001324  81.6208 278.4934 15.08848285120995
